CCSDS_OMM_VERS = 2.0
CREATION_DATE  = 
ORIGINATOR     = 

OBJECT_NAME    = COSMOS 1933
OBJECT_ID      = 1988-020A
CENTER_NAME    = EARTH
REF_FRAME      = TEME
TIME_SYSTEM    = UTC
MEAN_ELEMENT_THEORY = SGP/SGP4

EPOCH          = 2025-12-06T06:56:05.233344
MEAN_MOTION    = 15.17029525
ECCENTRICITY   = .00053535
INCLINATION    = 82.5129
RA_OF_ASC_NODE = 343.2526
ARG_OF_PERICENTER = 145.1170
MEAN_ANOMALY   = 215.0415

EPHEMERIS_TYPE = 0
CLASSIFICATION_TYPE = U
NORAD_CAT_ID   = 18958
ELEMENT_SET_NO = 999
REV_AT_EPOCH   = 3606
BSTAR          = .39466531E-3
MEAN_MOTION_DOT = .7836E-4
MEAN_MOTION_DDOT = 0

CCSDS_OMM_VERS = 2.0
CREATION_DATE  = 
ORIGINATOR     = 

OBJECT_NAME    = SL-3 R/B
OBJECT_ID      = 1988-032B
CENTER_NAME    = EARTH
REF_FRAME      = TEME
TIME_SYSTEM    = UTC
MEAN_ELEMENT_THEORY = SGP/SGP4

EPOCH          = 2025-12-06T04:57:48.308832
MEAN_MOTION    = 15.18641502
ECCENTRICITY   = .00259957
INCLINATION    = 97.5073
RA_OF_ASC_NODE = 318.9728
ARG_OF_PERICENTER = 195.8303
MEAN_ANOMALY   = 164.2121

EPHEMERIS_TYPE = 0
CLASSIFICATION_TYPE = U
NORAD_CAT_ID   = 19046
ELEMENT_SET_NO = 999
REV_AT_EPOCH   = 3791
BSTAR          = .39299555E-3
MEAN_MOTION_DOT = .8144E-4
MEAN_MOTION_DDOT = 0

CCSDS_OMM_VERS = 2.0
CREATION_DATE  = 
ORIGINATOR     = 

OBJECT_NAME    = SL-16 R/B
OBJECT_ID      = 1988-039B
CENTER_NAME    = EARTH
REF_FRAME      = TEME
TIME_SYSTEM    = UTC
MEAN_ELEMENT_THEORY = SGP/SGP4

EPOCH          = 2025-12-06T04:39:09.350208
MEAN_MOTION    = 14.19594847
ECCENTRICITY   = .00199058
INCLINATION    = 71.0151
RA_OF_ASC_NODE = 266.2385
ARG_OF_PERICENTER = 127.3523
MEAN_ANOMALY   = 232.9420

EPHEMERIS_TYPE = 0
CLASSIFICATION_TYPE = U
NORAD_CAT_ID   = 19120
ELEMENT_SET_NO = 999
REV_AT_EPOCH   = 94511
BSTAR          = .14107113E-3
MEAN_MOTION_DOT = .25E-5
MEAN_MOTION_DDOT = 0

CCSDS_OMM_VERS = 2.0
CREATION_DATE  = 
ORIGINATOR     = 

OBJECT_NAME    = COSMOS 1953
OBJECT_ID      = 1988-050A
CENTER_NAME    = EARTH
REF_FRAME      = TEME
TIME_SYSTEM    = UTC
MEAN_ELEMENT_THEORY = SGP/SGP4

EPOCH          = 2025-12-06T05:11:37.565664
MEAN_MOTION    = 15.26825205
ECCENTRICITY   = .00138071
INCLINATION    = 82.5101
RA_OF_ASC_NODE = 252.1256
ARG_OF_PERICENTER = 91.2063
MEAN_ANOMALY   = 269.0758

EPHEMERIS_TYPE = 0
CLASSIFICATION_TYPE = U
NORAD_CAT_ID   = 19210
ELEMENT_SET_NO = 999
REV_AT_EPOCH   = 2351
BSTAR          = .35716506E-3
MEAN_MOTION_DOT = .9472E-4
MEAN_MOTION_DDOT = 0

CCSDS_OMM_VERS = 2.0
CREATION_DATE  = 
ORIGINATOR     = 

OBJECT_NAME    = SL-8 R/B
OBJECT_ID      = 1988-053B
CENTER_NAME    = EARTH
REF_FRAME      = TEME
TIME_SYSTEM    = UTC
MEAN_ELEMENT_THEORY = SGP/SGP4

EPOCH          = 2025-12-06T00:09:42.387840
MEAN_MOTION    = 14.38852567
ECCENTRICITY   = .00191407
INCLINATION    = 74.0476
RA_OF_ASC_NODE = 285.1286
ARG_OF_PERICENTER = 131.7447
MEAN_ANOMALY   = 300.5137

EPHEMERIS_TYPE = 0
CLASSIFICATION_TYPE = U
NORAD_CAT_ID   = 19257
ELEMENT_SET_NO = 999
REV_AT_EPOCH   = 96312
BSTAR          = .16680107E-3
MEAN_MOTION_DOT = .488E-5
MEAN_MOTION_DDOT = 0

CCSDS_OMM_VERS = 2.0
CREATION_DATE  = 
ORIGINATOR     = 

OBJECT_NAME    = COSMOS 1975
OBJECT_ID      = 1988-093A
CENTER_NAME    = EARTH
REF_FRAME      = TEME
TIME_SYSTEM    = UTC
MEAN_ELEMENT_THEORY = SGP/SGP4

EPOCH          = 2025-12-06T02:15:39.526272
MEAN_MOTION    = 15.26326927
ECCENTRICITY   = .0012443
INCLINATION    = 82.5206
RA_OF_ASC_NODE = 211.4805
ARG_OF_PERICENTER = 133.3398
MEAN_ANOMALY   = 226.8880

EPHEMERIS_TYPE = 0
CLASSIFICATION_TYPE = U
NORAD_CAT_ID   = 19573
ELEMENT_SET_NO = 999
REV_AT_EPOCH   = 512
BSTAR          = .40788245E-3
MEAN_MOTION_DOT = .10647E-3
MEAN_MOTION_DDOT = 0

CCSDS_OMM_VERS = 2.0
CREATION_DATE  = 
ORIGINATOR     = 

OBJECT_NAME    = SL-14 R/B
OBJECT_ID      = 1988-093B
CENTER_NAME    = EARTH
REF_FRAME      = TEME
TIME_SYSTEM    = UTC
MEAN_ELEMENT_THEORY = SGP/SGP4

EPOCH          = 2025-12-06T04:40:49.072224
MEAN_MOTION    = 14.85537869
ECCENTRICITY   = .00204809
INCLINATION    = 82.5299
RA_OF_ASC_NODE = 129.8089
ARG_OF_PERICENTER = 351.6910
MEAN_ANOMALY   = 181.0719

EPHEMERIS_TYPE = 0
CLASSIFICATION_TYPE = U
NORAD_CAT_ID   = 19574
ELEMENT_SET_NO = 999
REV_AT_EPOCH   = 98715
BSTAR          = .10563943E-3
MEAN_MOTION_DOT = .94E-5
MEAN_MOTION_DDOT = 0

CCSDS_OMM_VERS = 2.0
CREATION_DATE  = 
ORIGINATOR     = 

OBJECT_NAME    = SL-16 R/B
OBJECT_ID      = 1988-102B
CENTER_NAME    = EARTH
REF_FRAME      = TEME
TIME_SYSTEM    = UTC
MEAN_ELEMENT_THEORY = SGP/SGP4

EPOCH          = 2025-12-06T00:44:02.702112
MEAN_MOTION    = 14.16137046
ECCENTRICITY   = .00132755
INCLINATION    = 71.0002
RA_OF_ASC_NODE = 348.5606
ARG_OF_PERICENTER = 163.2235
MEAN_ANOMALY   = 196.9330

EPHEMERIS_TYPE = 0
CLASSIFICATION_TYPE = U
NORAD_CAT_ID   = 19650
ELEMENT_SET_NO = 999
REV_AT_EPOCH   = 91363
BSTAR          = -.5634707E-4
MEAN_MOTION_DOT = -.159E-5
MEAN_MOTION_DDOT = 0

CCSDS_OMM_VERS = 2.0
CREATION_DATE  = 
ORIGINATOR     = 

OBJECT_NAME    = INTERCOSMOS 24
OBJECT_ID      = 1989-080A
CENTER_NAME    = EARTH
REF_FRAME      = TEME
TIME_SYSTEM    = UTC
MEAN_ELEMENT_THEORY = SGP/SGP4

EPOCH          = 2025-12-06T05:30:22.709664
MEAN_MOTION    = 12.59421477
ECCENTRICITY   = .11887606
INCLINATION    = 82.6045
RA_OF_ASC_NODE = 165.1858
ARG_OF_PERICENTER = 149.6179
MEAN_ANOMALY   = 217.9652

EPHEMERIS_TYPE = 0
CLASSIFICATION_TYPE = U
NORAD_CAT_ID   = 20261
ELEMENT_SET_NO = 999
REV_AT_EPOCH   = 65503
BSTAR          = .46712166E-3
MEAN_MOTION_DOT = .1605E-4
MEAN_MOTION_DDOT = 0

CCSDS_OMM_VERS = 2.0
CREATION_DATE  = 
ORIGINATOR     = 

OBJECT_NAME    = SL-14 R/B
OBJECT_ID      = 1989-080C
CENTER_NAME    = EARTH
REF_FRAME      = TEME
TIME_SYSTEM    = UTC
MEAN_ELEMENT_THEORY = SGP/SGP4

EPOCH          = 2025-12-06T04:24:41.665248
MEAN_MOTION    = 12.50405564
ECCENTRICITY   = .12307625
INCLINATION    = 82.5937
RA_OF_ASC_NODE = 233.2284
ARG_OF_PERICENTER = 38.5679
MEAN_ANOMALY   = 329.7137

EPHEMERIS_TYPE = 0
CLASSIFICATION_TYPE = U
NORAD_CAT_ID   = 20262
ELEMENT_SET_NO = 999
REV_AT_EPOCH   = 64846
BSTAR          = .22082803E-3
MEAN_MOTION_DOT = .753E-5
MEAN_MOTION_DDOT = 0

CCSDS_OMM_VERS = 2.0
CREATION_DATE  = 
ORIGINATOR     = 

OBJECT_NAME    = DELTA 1 R/B
OBJECT_ID      = 1989-089B
CENTER_NAME    = EARTH
REF_FRAME      = TEME
TIME_SYSTEM    = UTC
MEAN_ELEMENT_THEORY = SGP/SGP4

EPOCH          = 2025-12-06T00:25:28.107552
MEAN_MOTION    = 14.50563862
ECCENTRICITY   = .0070476
INCLINATION    = 97.0757
RA_OF_ASC_NODE = 197.3204
ARG_OF_PERICENTER = 59.1720
MEAN_ANOMALY   = 301.6388

EPHEMERIS_TYPE = 0
CLASSIFICATION_TYPE = U
NORAD_CAT_ID   = 20323
ELEMENT_SET_NO = 999
REV_AT_EPOCH   = 88215
BSTAR          = .17501286E-3
MEAN_MOTION_DOT = .673E-5
MEAN_MOTION_DDOT = 0

CCSDS_OMM_VERS = 2.0
CREATION_DATE  = 
ORIGINATOR     = 

OBJECT_NAME    = ARIANE 40 R/B
OBJECT_ID      = 1990-005H
CENTER_NAME    = EARTH
REF_FRAME      = TEME
TIME_SYSTEM    = UTC
MEAN_ELEMENT_THEORY = SGP/SGP4

EPOCH          = 2025-12-06T03:17:36.656448
MEAN_MOTION    = 14.39790900
ECCENTRICITY   = .00111185
INCLINATION    = 98.3252
RA_OF_ASC_NODE = 38.5015
ARG_OF_PERICENTER = 123.7291
MEAN_ANOMALY   = 236.4959

EPHEMERIS_TYPE = 0
CLASSIFICATION_TYPE = U
NORAD_CAT_ID   = 20443
ELEMENT_SET_NO = 999
REV_AT_EPOCH   = 87934
BSTAR          = .21499829E-3
MEAN_MOTION_DOT = .632E-5
MEAN_MOTION_DDOT = 0

