COSMOS 1933             
1 18958U 88020A   25340.28894946  .00007836  00000+0  39467-3 0  9998
2 18958  82.5129 343.2526 0005353 145.1170 215.0415 15.17029525 36060
SL-3 R/B                
1 19046U 88032B   25340.20680913  .00008144  00000+0  39300-3 0  9998
2 19046  97.5073 318.9728 0025995 195.8303 164.2121 15.18641502 37910
SL-16 R/B               
1 19120U 88039B   25340.19385822  .00000250  00000+0  14107-3 0  9995
2 19120  71.0151 266.2385 0019905 127.3523 232.9420 14.19594847945113
COSMOS 1953             
1 19210U 88050A   25340.21640701  .00009472  00000+0  35717-3 0  9996
2 19210  82.5101 252.1256 0013807  91.2063 269.0758 15.26825205 23519
SL-8 R/B                
1 19257U 88053B   25340.00674060  .00000488  00000+0  16680-3 0  9998
2 19257  74.0476 285.1286 0019140 131.7447 300.5137 14.38852567963127
COSMOS 1975             
1 19573U 88093A   25340.09420748  .00010647  00000+0  40788-3 0  9998
2 19573  82.5206 211.4805 0012443 133.3398 226.8880 15.26326927  5120
SL-14 R/B               
1 19574U 88093B   25340.19501241  .00000940  00000+0  10564-3 0  9992
2 19574  82.5299 129.8089 0020480 351.6910 181.0719 14.85537869987152
SL-16 R/B               
1 19650U 88102B   25340.03058683 -.00000159  00000+0 -56347-4 0  9992
2 19650  71.0002 348.5606 0013275 163.2235 196.9330 14.16137046913631
INTERCOSMOS 24          
1 20261U 89080A   25340.22942951  .00001605  00000+0  46712-3 0  9998
2 20261  82.6045 165.1858 1188760 149.6179 217.9652 12.59421477655033
SL-14 R/B               
1 20262U 89080C   25340.18381557  .00000753  00000+0  22083-3 0  9991
2 20262  82.5937 233.2284 1230762  38.5679 329.7137 12.50405564648463
DELTA 1 R/B             
1 20323U 89089B   25340.01768643  .00000673  00000+0  17501-3 0  9995
2 20323  97.0757 197.3204 0070476  59.1720 301.6388 14.50563862882154
ARIANE 40 R/B           
1 20443U 90005H   25340.13722982  .00000632  00000+0  21500-3 0  9996
2 20443  98.3252  38.5015 0011118 123.7291 236.4959 14.39790900879344
